{
  "type": "FeatureCollection",
  "features": [
    {
      "type": "Feature",
      "properties": {
        "norad_id": 37781,
        "name": "HAIYANG-2A",
        "group": "resource",
        "lat": -58.64067605264961,
        "lon": 160.45596288755215,
        "alt_km": 976.2309689002586,
        "timestamp": "2025-12-21T07:34:34.197405+00:00",
        "meta_object_name": "HAIYANG-2A",
        "meta_object_id": "2011-043A",
        "meta_epoch": "2025-12-20T23:27:01.314720",
        "meta_mean_motion": 13.78836013,
        "meta_eccentricity": 0.00016247,
        "meta_inclination": 99.3371,
        "meta_ra_of_asc_node": 355.7846,
        "meta_arg_of_pericenter": 72.8611,
        "meta_mean_anomaly": 287.2719,
        "meta_ephemeris_type": 0,
        "meta_classification_type": "U",
        "meta_norad_cat_id": 37781,
        "meta_element_set_no": 999,
        "meta_rev_at_epoch": 72212,
        "meta_bstar": -2.5463533e-05,
        "meta_mean_motion_dot": -7e-07,
        "meta_mean_motion_ddot": 0,
        "tle_line1": "1 37781U 11043A   25354.97709855 -.00000070  00000+0 -25464-4 0  9997",
        "tle_line2": "2 37781  99.3371 355.7846 0001624  72.8611 287.2719 13.78836013722126"
      },
      "geometry": {
        "type": "Point",
        "coordinates": [
          160.45596288755215,
          -58.64067605264961
        ]
      }
    },
    {
      "type": "Feature",
      "properties": {
        "norad_id": 37791,
        "name": "RASAT",
        "group": "resource",
        "lat": -41.74917065604814,
        "lon": -102.82416968933578,
        "alt_km": 689.4787492283813,
        "timestamp": "2025-12-21T07:34:34.197414+00:00",
        "meta_object_name": "RASAT",
        "meta_object_id": "2011-044D",
        "meta_epoch": "2025-12-20T22:53:22.507872",
        "meta_mean_motion": 14.67918582,
        "meta_eccentricity": 0.002154,
        "meta_inclination": 98.0652,
        "meta_ra_of_asc_node": 84.0898,
        "meta_arg_of_pericenter": 40.2662,
        "meta_mean_anomaly": 70.3825,
        "meta_ephemeris_type": 0,
        "meta_classification_type": "U",
        "meta_norad_cat_id": 37791,
        "meta_element_set_no": 999,
        "meta_rev_at_epoch": 76703,
        "meta_bstar": 1.6948197e-05,
        "meta_mean_motion_dot": 4.8e-07,
        "meta_mean_motion_ddot": 0,
        "tle_line1": "1 37791U 11044D   25354.95373273  .00000048  00000+0  16948-4 0  9998",
        "tle_line2": "2 37791  98.0652  84.0898 0021540  40.2662  70.3825 14.67918582767037"
      },
      "geometry": {
        "type": "Point",
        "coordinates": [
          -102.82416968933578,
          -41.74917065604814
        ]
      }
    },
    {
      "type": "Feature",
      "properties": {
        "norad_id": 37841,
        "name": "SRMSAT",
        "group": "resource",
        "lat": -2.399989027318359,
        "lon": -117.32390957213427,
        "alt_km": 858.7430015508644,
        "timestamp": "2025-12-21T07:34:34.197423+00:00",
        "meta_object_name": "SRMSAT",
        "meta_object_id": "2011-058D",
        "meta_epoch": "2025-12-20T21:20:04.417728",
        "meta_mean_motion": 14.11513978,
        "meta_eccentricity": 0.00119611,
        "meta_inclination": 19.9725,
        "meta_ra_of_asc_node": 58.6302,
        "meta_arg_of_pericenter": 42.8733,
        "meta_mean_anomaly": 130.9266,
        "meta_ephemeris_type": 0,
        "meta_classification_type": "U",
        "meta_norad_cat_id": 37841,
        "meta_element_set_no": 999,
        "meta_rev_at_epoch": 73259,
        "meta_bstar": 6.1949044e-05,
        "meta_mean_motion_dot": 3.79e-06,
        "meta_mean_motion_ddot": 0,
        "tle_line1": "1 37841U 11058D   25354.88894002  .00000379  00000+0  61949-4 0  9997",
        "tle_line2": "2 37841  19.9725  58.6302 0011961  42.8733 130.9266 14.11513978732590"
      },
      "geometry": {
        "type": "Point",
        "coordinates": [
          -117.32390957213427,
          -2.399989027318359
        ]
      }
    },
    {
      "type": "Feature",
      "properties": {
        "norad_id": 38012,
        "name": "PLEIADES 1A",
        "group": "resource",
        "lat": 81.76690767000079,
        "lon": -15.969081787948,
        "alt_km": 689.5404880760343,
        "timestamp": "2025-12-21T07:34:34.197433+00:00",
        "meta_object_name": "PLEIADES 1A",
        "meta_object_id": "2011-076F",
        "meta_epoch": "2025-12-20T23:43:37.983648",
        "meta_mean_motion": 14.58567544,
        "meta_eccentricity": 0.00011603,
        "meta_inclination": 98.1821,
        "meta_ra_of_asc_node": 67.6302,
        "meta_arg_of_pericenter": 76.5574,
        "meta_mean_anomaly": 96.3569,
        "meta_ephemeris_type": 0,
        "meta_classification_type": "U",
        "meta_norad_cat_id": 38012,
        "meta_element_set_no": 999,
        "meta_rev_at_epoch": 74601,
        "meta_bstar": 2.3573318e-05,
        "meta_mean_motion_dot": 6.4e-07,
        "meta_mean_motion_ddot": 0,
        "tle_line1": "1 38012U 11076F   25354.98863407  .00000064  00000+0  23573-4 0  9996",
        "tle_line2": "2 38012  98.1821  67.6302 0001160  76.5574  96.3569 14.58567544746016"
      },
      "geometry": {
        "type": "Point",
        "coordinates": [
          -15.969081787948,
          81.76690767000079
        ]
      }
    },
    {
      "type": "Feature",
      "properties": {
        "norad_id": 38038,
        "name": "ZIYUAN 1-02C (ZY 1-02C)",
        "group": "resource",
        "lat": 79.3689103685316,
        "lon": 8.954282855952458,
        "alt_km": 753.1559569284946,
        "timestamp": "2025-12-21T07:34:34.197442+00:00",
        "meta_object_name": "ZIYUAN 1-02C (ZY 1-02C)",
        "meta_object_id": "2011-079A",
        "meta_epoch": "2025-12-20T23:38:31.007040",
        "meta_mean_motion": 14.38019894,
        "meta_eccentricity": 0.00074775,
        "meta_inclination": 98.433,
        "meta_ra_of_asc_node": 60.847,
        "meta_arg_of_pericenter": 116.8759,
        "meta_mean_anomaly": 56.2457,
        "meta_ephemeris_type": 0,
        "meta_classification_type": "U",
        "meta_norad_cat_id": 38038,
        "meta_element_set_no": 999,
        "meta_rev_at_epoch": 73359,
        "meta_bstar": 8.0838495e-05,
        "meta_mean_motion_dot": 2.01e-06,
        "meta_mean_motion_ddot": 0,
        "tle_line1": "1 38038U 11079A   25354.98508110  .00000201  00000+0  80838-4 0  9994",
        "tle_line2": "2 38038  98.4330  60.8470 0007477 116.8759  56.2457 14.38019894733591"
      },
      "geometry": {
        "type": "Point",
        "coordinates": [
          8.954282855952458,
          79.3689103685316
        ]
      }
    },
    {
      "type": "Feature",
      "properties": {
        "norad_id": 38338,
        "name": "ARIRANG-3 (KOMPSAT-3)",
        "group": "resource",
        "lat": 79.67727405539543,
        "lon": -103.61549277317043,
        "alt_km": 682.661938646007,
        "timestamp": "2025-12-21T07:34:34.197452+00:00",
        "meta_object_name": "ARIRANG-3 (KOMPSAT-3)",
        "meta_object_id": "2012-025B",
        "meta_epoch": "2025-12-20T21:20:11.649408",
        "meta_mean_motion": 14.61722339,
        "meta_eccentricity": 0.00048753,
        "meta_inclination": 98.3334,
        "meta_ra_of_asc_node": 309.5402,
        "meta_arg_of_pericenter": 310.2678,
        "meta_mean_anomaly": 49.8096,
        "meta_ephemeris_type": 0,
        "meta_classification_type": "U",
        "meta_norad_cat_id": 38338,
        "meta_element_set_no": 999,
        "meta_rev_at_epoch": 72529,
        "meta_bstar": 8.6027794e-05,
        "meta_mean_motion_dot": 3.8e-06,
        "meta_mean_motion_ddot": 0,
        "tle_line1": "1 38338U 12025B   25354.88902372  .00000380  00000+0  86028-4 0  9991",
        "tle_line2": "2 38338  98.3334 309.5402 0004875 310.2678  49.8096 14.61722339725290"
      },
      "geometry": {
        "type": "Point",
        "coordinates": [
          -103.61549277317043,
          79.67727405539543
        ]
      }
    },
    {
      "type": "Feature",
      "properties": {
        "norad_id": 38709,
        "name": "EXACTVIEW-1 (ADS-1B)",
        "group": "resource",
        "lat": 26.892524765684126,
        "lon": 99.29407703046786,
        "alt_km": 803.8313286561015,
        "timestamp": "2025-12-21T07:34:34.197461+00:00",
        "meta_object_name": "EXACTVIEW-1 (ADS-1B)",
        "meta_object_id": "2012-039C",
        "meta_epoch": "2025-12-20T21:20:14.250048",
        "meta_mean_motion": 14.24910996,
        "meta_eccentricity": 0.0010268,
        "meta_inclination": 98.9639,
        "meta_ra_of_asc_node": 103.4501,
        "meta_arg_of_pericenter": 330.0947,
        "meta_mean_anomaly": 29.9644,
        "meta_ephemeris_type": 0,
        "meta_classification_type": "U",
        "meta_norad_cat_id": 38709,
        "meta_element_set_no": 999,
        "meta_rev_at_epoch": 69731,
        "meta_bstar": 6.3944699e-05,
        "meta_mean_motion_dot": 1.03e-06,
        "meta_mean_motion_ddot": 0,
        "tle_line1": "1 38709U 12039C   25354.88905382  .00000103  00000+0  63945-4 0  9998",
        "tle_line2": "2 38709  98.9639 103.4501 0010268 330.0947  29.9644 14.24910996697315"
      },
      "geometry": {
        "type": "Point",
        "coordinates": [
          99.29407703046786,
          26.892524765684126
        ]
      }
    }
  ]
}